[{"OBJECT_NAME":"FLOCK 4G-14","OBJECT_ID":"2025-009BL","EPOCH":"2026-03-09T18:12:31.432032","MEAN_MOTION":15.27197201,"ECCENTRICITY":0.00030064,"INCLINATION":97.4064,"RA_OF_ASC_NODE":151.1836,"ARG_OF_PERICENTER":318.3639,"MEAN_ANOMALY":41.7371,"EPHEMERIS_TYPE":0,"CLASSIFICATION_TYPE":"U","NORAD_CAT_ID":62667,"ELEMENT_SET_NO":999,"REV_AT_EPOCH":6371,"BSTAR":0.00042675627,"MEAN_MOTION_DOT":0.0001131,"MEAN_MOTION_DDOT":0},{"OBJECT_NAME":"STARLINK-35859","OBJECT_ID":"2025-303Y","EPOCH":"2026-03-09T01:34:32.725920","MEAN_MOTION":15.27586117,"ECCENTRICITY":0.00016597,"INCLINATION":43.0016,"RA_OF_ASC_NODE":313.8994,"ARG_OF_PERICENTER":262.5678,"MEAN_ANOMALY":97.4985,"EPHEMERIS_TYPE":0,"CLASSIFICATION_TYPE":"U","NORAD_CAT_ID":67185,"ELEMENT_SET_NO":999,"REV_AT_EPOCH":1264,"BSTAR":0.0013759151,"MEAN_MOTION_DOT":0.00037802,"MEAN_MOTION_DDOT":0}]
